STARLINK-37036          
1 68077U 26042J   26073.25002315 -.01432812  00000+0 -54553-2 0  9994
2 68077  53.1594 171.9412 0000750  89.7685 273.0127 15.89622362  2780
STARLINK-36973          
1 68078U 26042K   26073.25002315 -.01446761  00000+0 -54520-2 0  9997
2 68078  53.1596 171.9277 0000703  94.4671 274.7695 15.89852076  2783
STARLINK-37063          
1 68079U 26042L   26073.25002315 -.01433395  00000+0 -54230-2 0  9995
2 68079  53.1590 171.9349 0000783  88.0516 277.7553 15.89746806  2782
STARLINK-37051          
1 68080U 26042M   26073.25002315 -.01441994  00000+0 -53716-2 0  9999
2 68080  53.1593 171.9141 0000855  82.0431 293.7018 15.90064844  2788
STARLINK-37066          
1 68081U 26042N   26073.25002315 -.01446131  00000+0 -54204-2 0  9991
2 68081  53.1598 171.9210 0000815  84.7463 287.8379 15.89953927  2782
STARLINK-37054          
1 68082U 26042P   26073.25002315 -.01436120  00000+0 -53126-2 0  9991
2 68082  53.1594 171.9080 0000952  85.4350 293.2553 15.90186619  2782
STARLINK-37065          
1 68083U 26042Q   26073.25002315 -.01436386  00000+0 -52837-2 0  9994
2 68083  53.1596 171.9016 0000810  89.1634 292.6968 15.90298083  2785
STARLINK-37037          
1 68084U 26042R   26073.25002315 -.01438203  00000+0 -52632-2 0  9998
2 68084  53.1590 171.8946 0000688  89.2194 295.9506 15.90402573  2781
STARLINK-37068          
1 68085U 26042S   26073.25002315 -.01443913  00000+0 -52486-2 0  9990
2 68085  53.1591 171.8892 0000878  85.5189 302.3383 15.90541989  2788
STARLINK-37067          
1 68086U 26042T   26073.25002315 -.01449008  00000+0 -52439-2 0  9990
2 68086  53.1591 171.8819 0000826  82.0853 309.2588 15.90638303  2781
STARLINK-37062          
1 68087U 26042U   26073.25002315 -.01655277  75731-3 -52212-2 0  9994
2 68087  53.1592 171.8754 0000763  84.9917 309.5031 15.90749688  2788
STARLINK-37059          
1 68088U 26042V   26073.25002315 -.01657115  75954-3 -52018-2 0  9999
2 68088  53.1591 171.8684 0000792  81.6009 316.2822 15.90844415  2785
