CCSDS_OMM_VERS = 2.0
CREATION_DATE  = 
ORIGINATOR     = 

OBJECT_NAME    = STARLINK-37036
OBJECT_ID      = 2026-042J
CENTER_NAME    = EARTH
REF_FRAME      = TEME
TIME_SYSTEM    = UTC
MEAN_ELEMENT_THEORY = SGP/SGP4

EPOCH          = 2026-03-14T06:00:02.000160
MEAN_MOTION    = 15.89622362
ECCENTRICITY   = .00007503
INCLINATION    = 53.1594
RA_OF_ASC_NODE = 171.9412
ARG_OF_PERICENTER = 89.7685
MEAN_ANOMALY   = 273.0127

EPHEMERIS_TYPE = 0
CLASSIFICATION_TYPE = U
NORAD_CAT_ID   = 68077
ELEMENT_SET_NO = 999
REV_AT_EPOCH   = 278
BSTAR          = -.54553312E-2
MEAN_MOTION_DOT = -.1432812E-1
MEAN_MOTION_DDOT = 0

CCSDS_OMM_VERS = 2.0
CREATION_DATE  = 
ORIGINATOR     = 

OBJECT_NAME    = STARLINK-36973
OBJECT_ID      = 2026-042K
CENTER_NAME    = EARTH
REF_FRAME      = TEME
TIME_SYSTEM    = UTC
MEAN_ELEMENT_THEORY = SGP/SGP4

EPOCH          = 2026-03-14T06:00:02.000160
MEAN_MOTION    = 15.89852076
ECCENTRICITY   = .0000703
INCLINATION    = 53.1596
RA_OF_ASC_NODE = 171.9277
ARG_OF_PERICENTER = 94.4671
MEAN_ANOMALY   = 274.7695

EPHEMERIS_TYPE = 0
CLASSIFICATION_TYPE = U
NORAD_CAT_ID   = 68078
ELEMENT_SET_NO = 999
REV_AT_EPOCH   = 278
BSTAR          = -.54520495E-2
MEAN_MOTION_DOT = -.1446761E-1
MEAN_MOTION_DDOT = 0

CCSDS_OMM_VERS = 2.0
CREATION_DATE  = 
ORIGINATOR     = 

OBJECT_NAME    = STARLINK-37063
OBJECT_ID      = 2026-042L
CENTER_NAME    = EARTH
REF_FRAME      = TEME
TIME_SYSTEM    = UTC
MEAN_ELEMENT_THEORY = SGP/SGP4

EPOCH          = 2026-03-14T06:00:02.000160
MEAN_MOTION    = 15.89746806
ECCENTRICITY   = .00007832
INCLINATION    = 53.1590
RA_OF_ASC_NODE = 171.9349
ARG_OF_PERICENTER = 88.0516
MEAN_ANOMALY   = 277.7553

EPHEMERIS_TYPE = 0
CLASSIFICATION_TYPE = U
NORAD_CAT_ID   = 68079
ELEMENT_SET_NO = 999
REV_AT_EPOCH   = 278
BSTAR          = -.54230108E-2
MEAN_MOTION_DOT = -.1433395E-1
MEAN_MOTION_DDOT = 0

CCSDS_OMM_VERS = 2.0
CREATION_DATE  = 
ORIGINATOR     = 

OBJECT_NAME    = STARLINK-37051
OBJECT_ID      = 2026-042M
CENTER_NAME    = EARTH
REF_FRAME      = TEME
TIME_SYSTEM    = UTC
MEAN_ELEMENT_THEORY = SGP/SGP4

EPOCH          = 2026-03-14T06:00:02.000160
MEAN_MOTION    = 15.90064844
ECCENTRICITY   = .00008555
INCLINATION    = 53.1593
RA_OF_ASC_NODE = 171.9141
ARG_OF_PERICENTER = 82.0431
MEAN_ANOMALY   = 293.7018

EPHEMERIS_TYPE = 0
CLASSIFICATION_TYPE = U
NORAD_CAT_ID   = 68080
ELEMENT_SET_NO = 999
REV_AT_EPOCH   = 278
BSTAR          = -.53716083E-2
MEAN_MOTION_DOT = -.1441994E-1
MEAN_MOTION_DDOT = 0

CCSDS_OMM_VERS = 2.0
CREATION_DATE  = 
ORIGINATOR     = 

OBJECT_NAME    = STARLINK-37066
OBJECT_ID      = 2026-042N
CENTER_NAME    = EARTH
REF_FRAME      = TEME
TIME_SYSTEM    = UTC
MEAN_ELEMENT_THEORY = SGP/SGP4

EPOCH          = 2026-03-14T06:00:02.000160
MEAN_MOTION    = 15.89953927
ECCENTRICITY   = .00008159
INCLINATION    = 53.1598
RA_OF_ASC_NODE = 171.9210
ARG_OF_PERICENTER = 84.7463
MEAN_ANOMALY   = 287.8379

EPHEMERIS_TYPE = 0
CLASSIFICATION_TYPE = U
NORAD_CAT_ID   = 68081
ELEMENT_SET_NO = 999
REV_AT_EPOCH   = 278
BSTAR          = -.54204271E-2
MEAN_MOTION_DOT = -.1446131E-1
MEAN_MOTION_DDOT = 0

CCSDS_OMM_VERS = 2.0
CREATION_DATE  = 
ORIGINATOR     = 

OBJECT_NAME    = STARLINK-37054
OBJECT_ID      = 2026-042P
CENTER_NAME    = EARTH
REF_FRAME      = TEME
TIME_SYSTEM    = UTC
MEAN_ELEMENT_THEORY = SGP/SGP4

EPOCH          = 2026-03-14T06:00:02.000160
MEAN_MOTION    = 15.90186619
ECCENTRICITY   = .00009523
INCLINATION    = 53.1594
RA_OF_ASC_NODE = 171.9080
ARG_OF_PERICENTER = 85.4350
MEAN_ANOMALY   = 293.2553

EPHEMERIS_TYPE = 0
CLASSIFICATION_TYPE = U
NORAD_CAT_ID   = 68082
ELEMENT_SET_NO = 999
REV_AT_EPOCH   = 278
BSTAR          = -.53125706E-2
MEAN_MOTION_DOT = -.143612E-1
MEAN_MOTION_DDOT = 0

CCSDS_OMM_VERS = 2.0
CREATION_DATE  = 
ORIGINATOR     = 

OBJECT_NAME    = STARLINK-37065
OBJECT_ID      = 2026-042Q
CENTER_NAME    = EARTH
REF_FRAME      = TEME
TIME_SYSTEM    = UTC
MEAN_ELEMENT_THEORY = SGP/SGP4

EPOCH          = 2026-03-14T06:00:02.000160
MEAN_MOTION    = 15.90298083
ECCENTRICITY   = .00008106
INCLINATION    = 53.1596
RA_OF_ASC_NODE = 171.9016
ARG_OF_PERICENTER = 89.1634
MEAN_ANOMALY   = 292.6968

EPHEMERIS_TYPE = 0
CLASSIFICATION_TYPE = U
NORAD_CAT_ID   = 68083
ELEMENT_SET_NO = 999
REV_AT_EPOCH   = 278
BSTAR          = -.52836709E-2
MEAN_MOTION_DOT = -.1436386E-1
MEAN_MOTION_DDOT = 0

CCSDS_OMM_VERS = 2.0
CREATION_DATE  = 
ORIGINATOR     = 

OBJECT_NAME    = STARLINK-37037
OBJECT_ID      = 2026-042R
CENTER_NAME    = EARTH
REF_FRAME      = TEME
TIME_SYSTEM    = UTC
MEAN_ELEMENT_THEORY = SGP/SGP4

EPOCH          = 2026-03-14T06:00:02.000160
MEAN_MOTION    = 15.90402573
ECCENTRICITY   = .00006885
INCLINATION    = 53.1590
RA_OF_ASC_NODE = 171.8946
ARG_OF_PERICENTER = 89.2194
MEAN_ANOMALY   = 295.9506

EPHEMERIS_TYPE = 0
CLASSIFICATION_TYPE = U
NORAD_CAT_ID   = 68084
ELEMENT_SET_NO = 999
REV_AT_EPOCH   = 278
BSTAR          = -.52632436E-2
MEAN_MOTION_DOT = -.1438203E-1
MEAN_MOTION_DDOT = 0

CCSDS_OMM_VERS = 2.0
CREATION_DATE  = 
ORIGINATOR     = 

OBJECT_NAME    = STARLINK-37068
OBJECT_ID      = 2026-042S
CENTER_NAME    = EARTH
REF_FRAME      = TEME
TIME_SYSTEM    = UTC
MEAN_ELEMENT_THEORY = SGP/SGP4

EPOCH          = 2026-03-14T06:00:02.000160
MEAN_MOTION    = 15.90541989
ECCENTRICITY   = .00008788
INCLINATION    = 53.1591
RA_OF_ASC_NODE = 171.8892
ARG_OF_PERICENTER = 85.5189
MEAN_ANOMALY   = 302.3383

EPHEMERIS_TYPE = 0
CLASSIFICATION_TYPE = U
NORAD_CAT_ID   = 68085
ELEMENT_SET_NO = 999
REV_AT_EPOCH   = 278
BSTAR          = -.52486422E-2
MEAN_MOTION_DOT = -.1443913E-1
MEAN_MOTION_DDOT = 0

CCSDS_OMM_VERS = 2.0
CREATION_DATE  = 
ORIGINATOR     = 

OBJECT_NAME    = STARLINK-37067
OBJECT_ID      = 2026-042T
CENTER_NAME    = EARTH
REF_FRAME      = TEME
TIME_SYSTEM    = UTC
MEAN_ELEMENT_THEORY = SGP/SGP4

EPOCH          = 2026-03-14T06:00:02.000160
MEAN_MOTION    = 15.90638303
ECCENTRICITY   = .00008267
INCLINATION    = 53.1591
RA_OF_ASC_NODE = 171.8819
ARG_OF_PERICENTER = 82.0853
MEAN_ANOMALY   = 309.2588

EPHEMERIS_TYPE = 0
CLASSIFICATION_TYPE = U
NORAD_CAT_ID   = 68086
ELEMENT_SET_NO = 999
REV_AT_EPOCH   = 278
BSTAR          = -.52439153E-2
MEAN_MOTION_DOT = -.1449008E-1
MEAN_MOTION_DDOT = 0

CCSDS_OMM_VERS = 2.0
CREATION_DATE  = 
ORIGINATOR     = 

OBJECT_NAME    = STARLINK-37062
OBJECT_ID      = 2026-042U
CENTER_NAME    = EARTH
REF_FRAME      = TEME
TIME_SYSTEM    = UTC
MEAN_ELEMENT_THEORY = SGP/SGP4

EPOCH          = 2026-03-14T06:00:02.000160
MEAN_MOTION    = 15.90749688
ECCENTRICITY   = .00007632
INCLINATION    = 53.1592
RA_OF_ASC_NODE = 171.8754
ARG_OF_PERICENTER = 84.9917
MEAN_ANOMALY   = 309.5031

EPHEMERIS_TYPE = 0
CLASSIFICATION_TYPE = U
NORAD_CAT_ID   = 68087
ELEMENT_SET_NO = 999
REV_AT_EPOCH   = 278
BSTAR          = -.52212253E-2
MEAN_MOTION_DOT = -.1655277E-1
MEAN_MOTION_DDOT = .75730531E-3

CCSDS_OMM_VERS = 2.0
CREATION_DATE  = 
ORIGINATOR     = 

OBJECT_NAME    = STARLINK-37059
OBJECT_ID      = 2026-042V
CENTER_NAME    = EARTH
REF_FRAME      = TEME
TIME_SYSTEM    = UTC
MEAN_ELEMENT_THEORY = SGP/SGP4

EPOCH          = 2026-03-14T06:00:02.000160
MEAN_MOTION    = 15.90844415
ECCENTRICITY   = .00007926
INCLINATION    = 53.1591
RA_OF_ASC_NODE = 171.8684
ARG_OF_PERICENTER = 81.6009
MEAN_ANOMALY   = 316.2822

EPHEMERIS_TYPE = 0
CLASSIFICATION_TYPE = U
NORAD_CAT_ID   = 68088
ELEMENT_SET_NO = 999
REV_AT_EPOCH   = 278
BSTAR          = -.52018173E-2
MEAN_MOTION_DOT = -.1657115E-1
MEAN_MOTION_DDOT = .75954223E-3

